     2.11           N: GPS NAV DATA                         RINEX VERSION / TYPE
teqc  2019Feb25                         20221121 12:28:28UTCPGM / RUN BY / DATE
OSX ker:10.11.6|Core i5|gcc 4.3 -m64|OSX ker:10.10+|=+      COMMENT
    1.1176D-08  0.0000D+00 -5.9605D-08  0.0000D+00          ION ALPHA
    9.0112D+04  0.0000D+00 -1.9661D+05  0.0000D+00          ION BETA
    3.725290298462D-09 3.552713678801D-15    61440     1554 DELTA-UTC: A0,A1,T,W
                                                            END OF HEADER
 2 09 10 18  0  0  0.0 1.820307224989D-04 3.751665644813D-12 0.000000000000D+00
    1.050000000000D+02 9.378125000000D+01 4.831629828205D-09-9.885779487996D-01
    4.831701517105D-06 9.116464410909D-03 1.129880547524D-05 5.153728780746D+03
    0.000000000000D+00-1.862645149231D-09-3.040792455771D+00-1.471489667892D-07
    9.412242985243D-01 1.533750000000D+02 2.904946620241D+00-8.147839390215D-09
    2.075086435679D-10 1.000000000000D+00 1.554000000000D+03 0.000000000000D+00
    2.000000000000D+00 0.000000000000D+00-1.722946763039D-08 1.050000000000D+02
   -2.982000000000D+03 4.000000000000D+00
 4 09 10 18  0  0  0.0-3.158734180033D-04-1.773514668457D-11 0.000000000000D+00
    5.900000000000D+01 8.709375000000D+01 4.794842581582D-09 1.852256958097D+00
    4.651024937630D-06 8.943445282057D-03 1.198612153530D-05 5.153568506241D+03
    0.000000000000D+00-2.291053533554D-07-3.022615985368D+00 1.024454832077D-07
    9.404037653287D-01 1.403437500000D+02 5.389080679813D-01-8.158196964507D-09
    9.928985010651D-11 1.000000000000D+00 1.554000000000D+03 0.000000000000D+00
    2.000000000000D+00 0.000000000000D+00-6.053596735001D-09 5.900000000000D+01
   -2.982000000000D+03 4.000000000000D+00
12 09 10 18  0  0  0.0-2.029873430729D-04 5.456968210638D-12 0.000000000000D+00
    7.800000000000D+01 3.003125000000D+01 4.727339769819D-09-2.622794499747D+00
    1.642853021622D-06 3.056773450226D-03 4.664063453674D-06 5.153539604187D+03
    0.000000000000D+00-3.725290298462D-09 1.168973595574D+00 4.656612873077D-08
    9.679897409096D-01 2.923125000000D+02-5.783448210804D-01-8.219985252523D-09
    3.528718413857D-10 1.000000000000D+00 1.554000000000D+03 0.000000000000D+00
    2.000000000000D+00 0.000000000000D+00-1.164153218269D-08 7.800000000000D+01
   -2.982000000000D+03 4.000000000000D+00
13 09 10 18  0  0  0.0 3.056926652789D-04 2.273736754432D-13 0.000000000000D+00
    6.800000000000D+01-1.209062500000D+02 3.807301446530D-09-3.653913238781D-01
   -6.366521120071D-06 3.959150519222D-03 7.178634405136D-06 5.153640598297D+03
    0.000000000000D+00-6.146728992462D-08-8.694314533441D-01 0.000000000000D+00
    9.942221369084D-01 2.585625000000D+02 1.661241760770D+00-7.897828976278D-09
   -4.782342060886D-10 1.000000000000D+00 1.554000000000D+03 0.000000000000D+00
    2.000000000000D+00 0.000000000000D+00-1.117587089539D-08 6.800000000000D+01
   -2.982000000000D+03 4.000000000000D+00
23 09 10 18  0  0  0.0 3.873482346535D-04-4.547473508865D-13 0.000000000000D+00
    4.600000000000D+01-1.240312500000D+02 4.378039505776D-09-1.087973356126D+00
   -6.556510925293D-06 6.385976215824D-03 5.971640348434D-06 5.153763164520D+03
    0.000000000000D+00-2.048909664154D-08-9.248624858348D-01-1.545995473862D-07
    9.695114887765D-01 2.690625000000D+02 2.991105559415D+00-8.139981920063D-09
   -4.328751738457D-10 1.000000000000D+00 1.554000000000D+03 0.000000000000D+00
    2.000000000000D+00 0.000000000000D+00-2.002343535423D-08 4.600000000000D+01
   -2.982000000000D+03 4.000000000000D+00
30 09 10 18  0  0  0.0 1.857192255557D-04 3.069544618484D-12 0.000000000000D+00
    9.800000000000D+01 3.484375000000D+01 5.144500003360D-09 1.134248137965D+00
    1.622363924980D-06 1.194314681925D-02 5.049630999565D-06 5.153649604797D+03
    0.000000000000D+00-1.639127731323D-07 1.118888953736D+00-1.415610313416D-07
    9.531685930807D-01 2.788750000000D+02 1.463576768373D+00-8.590714980618D-09
    3.596578383355D-10 1.000000000000D+00 1.554000000000D+03 0.000000000000D+00
    2.800000000000D+00 0.000000000000D+00-7.916241884232D-09 9.800000000000D+01
   -2.982000000000D+03 4.000000000000D+00
31 09 10 18  0  0  0.0-6.274925544858D-05 6.821210263297D-13 0.000000000000D+00
    6.600000000000D+01-2.412500000000D+01 3.783014720605D-09-2.848574618361D+00
   -1.151114702225D-06 7.218185579404D-03 1.336820423603D-05 5.153543773651D+03
    0.000000000000D+00 9.126961231232D-08 1.149251239156D-01 5.029141902924D-08
    9.748295266141D-01 1.304062500000D+02-1.148418524241D+00-7.459239278685D-09
    3.528718413857D-10 1.000000000000D+00 1.554000000000D+03 0.000000000000D+00
    2.000000000000D+00 0.000000000000D+00-1.303851604462D-08 6.600000000000D+01
   -2.982000000000D+03 4.000000000000D+00
10 09 10 18  0  0  0.0-2.614129334688D-05-9.094947017729D-13 0.000000000000D+00
    1.100000000000D+01 4.971875000000D+01 5.177001357172D-09 1.228737547108D-01
    2.732500433922D-06 8.633172023110D-03 1.123175024986D-06 5.153383085251D+03
    0.000000000000D+00 5.774199962616D-08-1.955752646845D+00 7.636845111847D-08
    9.560661759024D-01 3.520937500000D+02 6.161205960102D-01-8.803938147933D-09
    1.010756387775D-10 1.000000000000D+00 1.554000000000D+03 0.000000000000D+00
    2.000000000000D+00 0.000000000000D+00-2.793967723846D-09 1.100000000000D+01
   -2.952000000000D+03 4.000000000000D+00
29 09 10 18  0  0  0.0 6.684474647045D-05 3.183231456205D-12 0.000000000000D+00
    4.300000000000D+01-4.378125000000D+01 4.620906765029D-09 2.708182333339D+00
   -2.510845661163D-06 2.980143995956D-03 9.166076779366D-06 5.153589258194D+03
    0.000000000000D+00 9.126961231232D-08 2.237515922251D+00 2.048909664154D-08
    9.601185599233D-01 2.030312500000D+02-1.268843166834D+00-7.997833141853D-09
   -5.896674191577D-10 1.000000000000D+00 1.554000000000D+03 0.000000000000D+00
    2.800000000000D+00 0.000000000000D+00-8.847564458847D-09 4.300000000000D+01
   -2.952000000000D+03 4.000000000000D+00
 5 09 10 18  0  0  0.0-6.312876939774D-05 8.526512829121D-12 0.000000000000D+00
    2.200000000000D+01 5.471875000000D+01 5.006994275695D-09 3.982394830844D-01
    2.879649400711D-06 1.551491557620D-03 1.264736056328D-06 5.153574575424D+03
    0.000000000000D+00 2.793967723846D-08-1.982766239635D+00-2.793967723846D-08
    9.610070339604D-01 3.521250000000D+02 2.183164217553D-01-8.607858551860D-09
    1.353627812603D-10 1.000000000000D+00 1.554000000000D+03 0.000000000000D+00
    2.000000000000D+00 0.000000000000D+00-9.313225746155D-09 2.200000000000D+01
   -2.352000000000D+03 4.000000000000D+00
25 09 10 18  0  0  0.0 6.349473260343D-04 1.364242052659D-11 0.000000000000D+00
    1.050000000000D+02-3.834375000000D+01 3.849803216900D-09 1.876515810313D+00
   -1.953914761543D-06 1.125526742544D-02 1.277960836887D-05 5.153644863129D+03
    0.000000000000D+00 2.738088369370D-07 2.220103118492D-02-1.303851604462D-08
    9.716409079439D-01 1.366562500000D+02-1.214503354197D+00-7.472811272585D-09
    2.171519023912D-10 1.000000000000D+00 1.554000000000D+03 0.000000000000D+00
    4.000000000000D+00 0.000000000000D+00-7.450580596924D-09 1.050000000000D+02
   -1.422000000000D+03 4.000000000000D+00
